1 43085U 83044GN  18046.18407095  .00006104  00000-0  49914-3 0  9993
2 43085  65.0022 252.5924 0115111 304.7582  54.2689 14.95151066  7981
1 43085U 83044GN  18046.91983513 +.00005972 +00000-0 +48850-3 0  9998
2 43085 065.0022 250.3110 0115157 304.4318 054.5912 14.95159308008102
1 43085U 83044GN  18047.18738527 +.00005991 +00000-0 +48998-3 0  9995
2 43085 065.0020 249.4811 0115145 304.3363 054.6911 14.95162767008140
1 43085U 83044GN  18048.19068968  .00005932  00000-0  48529-3 0  9997
2 43085  65.0017 246.3694 0115017 303.9807  55.0422 14.95174961  8283
1 43085U 83044GN  18048.52512273 +.00006085 +00000-0 +49717-3 0  9997
2 43085 065.0017 245.3331 0115164 303.7636 055.2652 14.95180295008342
1 43085U 83044GN  18049.19398188 +.00006266 +00000-0 +51132-3 0  9993
2 43085 065.0017 243.2582 0115185 303.6203 055.3980 14.95190480008442
1 43085U 83044GN  18049.66218272  .00006576  00000-0  53552-3 0  9992
2 43085  65.0023 241.8060 0115345 303.2648  55.7654 14.95199018  8506
1 43085U 83044GN  18050.53168668 +.00007056 +00000-0 +57330-3 0  9995
2 43085 065.0036 239.1075 0115319 302.9272 056.0968 14.95215214008640
1 43085U 83044GN  18050.86610744 +.00007571 +00000-0 +61464-3 0  9993
2 43085 065.0014 238.0689 0114817 302.8222 056.2019 14.95223384008681
1 43085U 83044GN  18051.53494652 +.00007796 +00000-0 +63210-3 0  9996
2 43085 065.0024 235.9953 0114905 302.6413 056.3688 14.95235846008791
1 43085U 83044GN  18052.07001316  .00008385  00000-0  67845-3 0  9990
2 43085  65.0030 234.3372 0114896 302.7022  56.3098 14.95249189  8860
1 43085U 83044GN  18052.87260939 +.00008700 +00000-0 +70297-3 0  9992
2 43085 065.0028 231.8485 0114973 302.4015 056.6124 14.95265142008993
1 43085U 83044GN  18053.14013771 +.00008627 +00000-0 +69691-3 0  9997
2 43085 065.0025 231.0185 0115076 302.2952 056.7006 14.95269151009032
1 43085U 83044GN  18053.47455050 +.00008649 +00000-0 +69847-3 0  9990
2 43085 065.0037 229.9795 0115150 302.1322 056.8650 14.95275011009084
1 43085U 83044GN  18054.07648933  .00008451  00000-0  68268-3 0  9998
2 43085  65.0034 228.1123 0115129 301.8294  57.1538 14.95283604  9162
1 43085U 83044GN  18054.87907001 +.00007757 +00000-0 +62645-3 0  9991
2 43085 065.0024 225.6218 0116000 301.7051 057.2511 14.95292282009284
1 43085U 83044GN  18055.07971952 +.00007719 +00000-0 +62356-3 0  9997
2 43085 065.0024 224.9997 0115901 301.5996 057.3831 14.95295143009325
1 43085U 83044GN  18055.54788805 +.00007650 +00000-0 +61816-3 0  9996
2 43085 065.0027 223.5479 0115813 301.4343 057.5437 14.95301914009390
1 43085U 83044GN  18056.08293639 +.00007480 +00000-0 +60441-3 0  9996
2 43085 065.0020 221.8877 0116003 301.3155 057.6613 14.95309082009478
1 43085U 83044GN  18056.81862205 +.00007355 +00000-0 +59426-3 0  9990
2 43085 065.0022 219.6060 0116080 300.9234 058.0540 14.95319771009589
1 43085U 83044GN  18057.08614209  .00007343  00000-0  59321-3 0  9990
2 43085  65.0014 218.7751 0116088 300.9050  58.0693 14.95323831  9616
1 43085U 83044GN  18057.55430136 +.00007340 +00000-0 +59288-3 0  9996
2 43085 065.0009 217.3229 0116092 300.7364 058.2344 14.95330759009696
1 43085U 83044GN  18058.08933789 +.00007416 +00000-0 +59868-3 0  9995
2 43085 065.0027 215.6627 0116100 300.4516 058.5208 14.95339417009776
1 43085U 83044GN  18058.49061255 +.00007507 +00000-0 +60601-3 0  9998
2 43085 065.0022 214.4170 0115946 300.2706 058.7005 14.95346057009839
1 43085U 83044GN  18059.49379235  .00007635  00000-0  61587-3 0  9995
2 43085  65.0019 211.3041 0115882 299.7955  59.1721 14.95362351  9975
1 43085U 83044GN  18059.82818260 +.00007690 +00000-0 +62021-3 0  9993
2 43085 065.0012 210.2668 0115812 299.6846 059.2803 14.95368008010038
1 43085U 83044GN  18060.02881620 +.00007741 +00000-0 +62410-3 0  9996
2 43085 065.0010 209.6443 0115880 299.6686 059.2948 14.95371611010063
